QIANFAN-9               
1 60387U 24140J   25334.90819899  .00000089  00000+0  11983-3 0  9996
2 60387  88.9751 300.5613 0014535 228.5705 131.4198 13.50978952 65736
QIANFAN-10              
1 60388U 24140K   25334.83832588  .00000082  00000+0  10905-3 0  9995
2 60388  88.9761 299.9145 0013514 203.2791 156.7749 13.50979539 65857
QIANFAN-11              
1 60389U 24140L   25334.87538093  .00000078  00000+0  10254-3 0  9996
2 60389  88.9687 300.5068 0012576 227.7870 132.2214 13.50975748 65511
QIANFAN-12              
1 60390U 24140M   25334.89588356  .00000089  00000+0  11891-3 0  9997
2 60390  88.9730 300.5429 0011266 236.8088 123.1984 13.50976475 65645
QIANFAN-13              
1 60391U 24140N   25334.86708538  .00000094  00000+0  12717-3 0  9995
2 60391  88.9742 300.6444 0011062 239.9514 120.0540 13.50976959 65662
QIANFAN-14              
1 60392U 24140P   25334.89167332  .00000074  00000+0  96407-4 0  9997
2 60392  88.9721 300.5419 0014742 240.4720 119.4961 13.50976553 65675
QIANFAN-15              
1 60393U 24140Q   25334.89995253  .00000093  00000+0  12617-3 0  9990
2 60393  88.9744 300.4947 0010757 223.5905 136.4397 13.50975339 65667
QIANFAN-16              
1 60394U 24140R   25334.88775279  .00000071  00000+0  91723-4 0  9996
2 60394  88.9748 300.6159 0012649 244.6477 115.3364 13.50975442 65574
